{
  "type": "FeatureCollection",
  "features": [
    {
      "type": "Feature",
      "properties": {
        "norad_id": 66967,
        "name": "STARLINK-36136",
        "group": "last-30-days",
        "lat": 18.798030460472003,
        "lon": 142.15880896804092,
        "alt_km": 319.3237438555625,
        "timestamp": "2025-12-20T07:33:49.516153+00:00",
        "meta_object_name": "STARLINK-36136",
        "meta_object_id": "2025-288J",
        "meta_epoch": "2025-12-19T17:48:57.397536",
        "meta_mean_motion": 15.83133906,
        "meta_eccentricity": 0.0002653,
        "meta_inclination": 43.0012,
        "meta_ra_of_asc_node": 124.2508,
        "meta_arg_of_pericenter": 315.6141,
        "meta_mean_anomaly": 44.4518,
        "meta_ephemeris_type": 0,
        "meta_classification_type": "U",
        "meta_norad_cat_id": 66967,
        "meta_element_set_no": 999,
        "meta_rev_at_epoch": 295,
        "meta_bstar": -0.0020345365,
        "meta_mean_motion_dot": -0.00430625,
        "meta_mean_motion_ddot": 0,
        "tle_line1": "1 66967U 25288J   25353.74233099 -.00430625  00000+0 -20345-2 0  9991",
        "tle_line2": "2 66967  43.0012 124.2508 0002653 315.6141  44.4518 15.83133906  2956"
      },
      "geometry": {
        "type": "Point",
        "coordinates": [
          142.15880896804092,
          18.798030460472003
        ]
      }
    },
    {
      "type": "Feature",
      "properties": {
        "norad_id": 66968,
        "name": "STARLINK-36152",
        "group": "last-30-days",
        "lat": 20.43186854020333,
        "lon": 144.29062090155782,
        "alt_km": 319.8153541670581,
        "timestamp": "2025-12-20T07:33:49.516163+00:00",
        "meta_object_name": "STARLINK-36152",
        "meta_object_id": "2025-288K",
        "meta_epoch": "2025-12-19T17:48:17.883360",
        "meta_mean_motion": 15.83117105,
        "meta_eccentricity": 0.00022963,
        "meta_inclination": 43.0011,
        "meta_ra_of_asc_node": 124.2463,
        "meta_arg_of_pericenter": 294.3972,
        "meta_mean_anomaly": 65.666,
        "meta_ephemeris_type": 0,
        "meta_classification_type": "U",
        "meta_norad_cat_id": 66968,
        "meta_element_set_no": 999,
        "meta_rev_at_epoch": 295,
        "meta_bstar": -0.0019502857,
        "meta_mean_motion_dot": -0.00413243,
        "meta_mean_motion_ddot": 0,
        "tle_line1": "1 66968U 25288K   25353.74187365 -.00413243  00000+0 -19503-2 0  9997",
        "tle_line2": "2 66968  43.0011 124.2463 0002296 294.3972  65.6660 15.83117105  2950"
      },
      "geometry": {
        "type": "Point",
        "coordinates": [
          144.29062090155782,
          20.43186854020333
        ]
      }
    },
    {
      "type": "Feature",
      "properties": {
        "norad_id": 66969,
        "name": "STARLINK-36149",
        "group": "last-30-days",
        "lat": 28.62035202326419,
        "lon": 156.53632946953766,
        "alt_km": 316.53375820709516,
        "timestamp": "2025-12-20T07:33:49.516174+00:00",
        "meta_object_name": "STARLINK-36149",
        "meta_object_id": "2025-288L",
        "meta_epoch": "2025-12-19T16:14:26.540448",
        "meta_mean_motion": 15.8367777,
        "meta_eccentricity": 0.00020381,
        "meta_inclination": 43.0013,
        "meta_ra_of_asc_node": 124.6173,
        "meta_arg_of_pericenter": 225.9465,
        "meta_mean_anomaly": 134.124,
        "meta_ephemeris_type": 0,
        "meta_classification_type": "U",
        "meta_norad_cat_id": 66969,
        "meta_element_set_no": 999,
        "meta_rev_at_epoch": 294,
        "meta_bstar": 0.00035800418,
        "meta_mean_motion_dot": 0.00081756,
        "meta_mean_motion_ddot": 0,
        "tle_line1": "1 66969U 25288L   25353.67669607  .00081756  00000+0  35800-3 0  9991",
        "tle_line2": "2 66969  43.0013 124.6173 0002038 225.9465 134.1240 15.83677770  2940"
      },
      "geometry": {
        "type": "Point",
        "coordinates": [
          156.53632946953766,
          28.62035202326419
        ]
      }
    },
    {
      "type": "Feature",
      "properties": {
        "norad_id": 66970,
        "name": "STARLINK-35703",
        "group": "last-30-days",
        "lat": 33.12920314714556,
        "lon": 165.12441352252932,
        "alt_km": 316.33494282981064,
        "timestamp": "2025-12-20T07:33:49.516184+00:00",
        "meta_object_name": "STARLINK-35703",
        "meta_object_id": "2025-288M",
        "meta_epoch": "2025-12-19T16:12:06.914592",
        "meta_mean_motion": 15.8352226,
        "meta_eccentricity": 0.00018776,
        "meta_inclination": 43.0009,
        "meta_ra_of_asc_node": 124.603,
        "meta_arg_of_pericenter": 275.4876,
        "meta_mean_anomaly": 84.5782,
        "meta_ephemeris_type": 0,
        "meta_classification_type": "U",
        "meta_norad_cat_id": 66970,
        "meta_element_set_no": 999,
        "meta_rev_at_epoch": 294,
        "meta_bstar": -0.00033388952,
        "meta_mean_motion_dot": -0.00075382,
        "meta_mean_motion_ddot": 0,
        "tle_line1": "1 66970U 25288M   25353.67508003 -.00075382  00000+0 -33389-3 0  9995",
        "tle_line2": "2 66970  43.0009 124.6030 0001877 275.4876  84.5782 15.83522260  2947"
      },
      "geometry": {
        "type": "Point",
        "coordinates": [
          165.12441352252932,
          33.12920314714556
        ]
      }
    },
    {
      "type": "Feature",
      "properties": {
        "norad_id": 66971,
        "name": "STARLINK-35678",
        "group": "last-30-days",
        "lat": 21.67402407715138,
        "lon": 145.96657779197213,
        "alt_km": 319.4821381836191,
        "timestamp": "2025-12-20T07:33:49.516194+00:00",
        "meta_object_name": "STARLINK-35678",
        "meta_object_id": "2025-288N",
        "meta_epoch": "2025-12-19T16:16:59.430432",
        "meta_mean_motion": 15.83306163,
        "meta_eccentricity": 0.00020664,
        "meta_inclination": 43.0019,
        "meta_ra_of_asc_node": 124.632,
        "meta_arg_of_pericenter": 298.6857,
        "meta_mean_anomaly": 61.3807,
        "meta_ephemeris_type": 0,
        "meta_classification_type": "U",
        "meta_norad_cat_id": 66971,
        "meta_element_set_no": 999,
        "meta_rev_at_epoch": 294,
        "meta_bstar": -0.0023694301,
        "meta_mean_motion_dot": -0.00501413,
        "meta_mean_motion_ddot": 0,
        "tle_line1": "1 66971U 25288N   25353.67846563 -.00501413  00000+0 -23694-2 0  9998",
        "tle_line2": "2 66971  43.0019 124.6320 0002066 298.6857  61.3807 15.83306163  2941"
      },
      "geometry": {
        "type": "Point",
        "coordinates": [
          145.96657779197213,
          21.67402407715138
        ]
      }
    },
    {
      "type": "Feature",
      "properties": {
        "norad_id": 66972,
        "name": "STARLINK-34846",
        "group": "last-30-days",
        "lat": 24.127597834637225,
        "lon": 149.43945022223699,
        "alt_km": 316.7727222354224,
        "timestamp": "2025-12-20T07:33:49.516204+00:00",
        "meta_object_name": "STARLINK-34846",
        "meta_object_id": "2025-288P",
        "meta_epoch": "2025-12-19T17:47:08.194848",
        "meta_mean_motion": 15.83519621,
        "meta_eccentricity": 0.00021695,
        "meta_inclination": 43.0016,
        "meta_ra_of_asc_node": 124.2401,
        "meta_arg_of_pericenter": 288.4953,
        "meta_mean_anomaly": 71.5683,
        "meta_ephemeris_type": 0,
        "meta_classification_type": "U",
        "meta_norad_cat_id": 66972,
        "meta_element_set_no": 999,
        "meta_rev_at_epoch": 295,
        "meta_bstar": 0.00034080252,
        "meta_mean_motion_dot": 0.00077176,
        "meta_mean_motion_ddot": 0,
        "tle_line1": "1 66972U 25288P   25353.74106707  .00077176  00000+0  34080-3 0  9990",
        "tle_line2": "2 66972  43.0016 124.2401 0002169 288.4953  71.5683 15.83519621  2954"
      },
      "geometry": {
        "type": "Point",
        "coordinates": [
          149.43945022223699,
          24.127597834637225
        ]
      }
    },
    {
      "type": "Feature",
      "properties": {
        "norad_id": 66973,
        "name": "STARLINK-35778",
        "group": "last-30-days",
        "lat": 24.746917982297745,
        "lon": 150.35545469658706,
        "alt_km": 318.4062458227645,
        "timestamp": "2025-12-20T07:33:49.516213+00:00",
        "meta_object_name": "STARLINK-35778",
        "meta_object_id": "2025-288Q",
        "meta_epoch": "2025-12-19T17:46:35.755104",
        "meta_mean_motion": 15.83178931,
        "meta_eccentricity": 0.0002826,
        "meta_inclination": 43.0017,
        "meta_ra_of_asc_node": 124.2373,
        "meta_arg_of_pericenter": 302.0762,
        "meta_mean_anomaly": 57.9836,
        "meta_ephemeris_type": 0,
        "meta_classification_type": "U",
        "meta_norad_cat_id": 66973,
        "meta_element_set_no": 999,
        "meta_rev_at_epoch": 295,
        "meta_bstar": -0.0011790201,
        "meta_mean_motion_dot": -0.00255323,
        "meta_mean_motion_ddot": 0,
        "tle_line1": "1 66973U 25288Q   25353.74069161 -.00255323  00000+0 -11790-2 0  9999",
        "tle_line2": "2 66973  43.0017 124.2373 0002826 302.0762  57.9836 15.83178931  2958"
      },
      "geometry": {
        "type": "Point",
        "coordinates": [
          150.35545469658706,
          24.746917982297745
        ]
      }
    }
  ]
}